start=new Date('2023-05-08T00:00:00.000Z').valueOf();
sats=[{"REV_AT_EPOCH":"5559","MEAN_MOTION_DOT":"-0.00000758","RCS_SIZE":"LARGE","EPHEMERIS_TYPE":"0","SEMIMAJOR_AXIS":"6917.913","SITE":"AFETR","EPOCH":"2023-05-07T22:24:01.857312","TIME_SYSTEM":"UTC","ECCENTRICITY":"0.00014020","APOAPSIS":"540.748","PERIOD":"95.438","COUNTRY_CODE":"US","OBJECT_NAME":"STARLINK-3909","INCLINATION":"53.2166","OBJECT_ID":"2022-049B","TLE_LINE2":"2 52452  53.2166  43.1723 0001402  85.6723 274.4429 15.08829357 55595","ARG_OF_PERICENTER":"85.6723","OBJECT_TYPE":"PAYLOAD","REF_FRAME":"TEME","LAUNCH_DATE":"2022-05-06","FILE":"3903413","MEAN_ANOMALY":"274.4429","MEAN_ELEMENT_THEORY":"SGP4","MEAN_MOTION_DDOT":"0.0000000000000","CENTER_NAME":"EARTH","TLE_LINE1":"1 52452U 22049B   23127.93335483 -.00000758  00000-0 -29521-4 0  9993","GP_ID":"231431186","MEAN_MOTION":"15.08829357","PERIAPSIS":"538.808","CLASSIFICATION_TYPE":"U","ELEMENT_SET_NO":"999","NORAD_CAT_ID":"52452","RA_OF_ASC_NODE":"43.1723","BSTAR":"-0.00002952100000","DECAY_DATE":null},{"TIME_SYSTEM":"UTC","SITE":"AFETR","EPOCH":"2023-05-07T21:57:33.205824","SEMIMAJOR_AXIS":"6917.893","EPHEMERIS_TYPE":"0","MEAN_MOTION_DOT":"-0.00000235","RCS_SIZE":"LARGE","REV_AT_EPOCH":"5559","LAUNCH_DATE":"2022-05-06","REF_FRAME":"TEME","OBJECT_TYPE":"PAYLOAD","ARG_OF_PERICENTER":"110.6560","TLE_LINE2":"2 52453  53.2177  43.3799 0001210 110.6560 249.4562 15.08835757 55599","PERIOD":"95.438","INCLINATION":"53.2177","COUNTRY_CODE":"US","OBJECT_NAME":"STARLINK-3872","OBJECT_ID":"2022-049C","APOAPSIS":"540.595","ECCENTRICITY":"0.00012100","CENTER_NAME":"EARTH","TLE_LINE1":"1 52453U 22049C   23127.91496766 -.00000235  00000-0  33513-5 0  9990","MEAN_MOTION_DDOT":"0.0000000000000","MEAN_ELEMENT_THEORY":"SGP4","MEAN_ANOMALY":"249.4562","FILE":"3903413","BSTAR":"0.00000335130000","DECAY_DATE":null,"RA_OF_ASC_NODE":"43.3799","NORAD_CAT_ID":"52453","PERIAPSIS":"538.921","CLASSIFICATION_TYPE":"U","ELEMENT_SET_NO":"999","GP_ID":"231429935","MEAN_MOTION":"15.08835757"},{"OBJECT_TYPE":"PAYLOAD","REF_FRAME":"TEME","LAUNCH_DATE":"2022-05-06","ECCENTRICITY":"0.00009810","APOAPSIS":"540.466","OBJECT_NAME":"STARLINK-3888","COUNTRY_CODE":"US","INCLINATION":"53.2170","OBJECT_ID":"2022-049D","PERIOD":"95.438","TLE_LINE2":"2 52454  53.2170  43.3659 0000981 102.6605 257.4497 15.08826213 55596","ARG_OF_PERICENTER":"102.6605","EPHEMERIS_TYPE":"0","SEMIMAJOR_AXIS":"6917.923","EPOCH":"2023-05-07T22:02:51.674496","SITE":"AFETR","TIME_SYSTEM":"UTC","REV_AT_EPOCH":"5559","RCS_SIZE":"MEDIUM","MEAN_MOTION_DOT":"-0.00002630","RA_OF_ASC_NODE":"43.3659","DECAY_DATE":null,"BSTAR":"-0.00014726000000","MEAN_MOTION":"15.08826213","GP_ID":"231430185","ELEMENT_SET_NO":"999","PERIAPSIS":"539.109","CLASSIFICATION_TYPE":"U","NORAD_CAT_ID":"52454","TLE_LINE1":"1 52454U 22049D   23127.91865364 -.00002630  00000-0 -14726-3 0  9990","CENTER_NAME":"EARTH","FILE":"3903413","MEAN_ANOMALY":"257.4497","MEAN_ELEMENT_THEORY":"SGP4","MEAN_MOTION_DDOT":"0.0000000000000"},{"DECAY_DATE":null,"BSTAR":"-0.00004594500000","RA_OF_ASC_NODE":"43.3908","NORAD_CAT_ID":"52455","MEAN_MOTION":"15.08831032","GP_ID":"231430936","ELEMENT_SET_NO":"999","PERIAPSIS":"538.846","CLASSIFICATION_TYPE":"U","TLE_LINE1":"1 52455U 22049E   23127.91224639 -.00001019  00000-0 -45945-4 0  9993","CENTER_NAME":"EARTH","MEAN_ELEMENT_THEORY":"SGP4","MEAN_MOTION_DDOT":"0.0000000000000","FILE":"3903413","MEAN_ANOMALY":"230.3585","LAUNCH_DATE":"2022-05-06","OBJECT_TYPE":"PAYLOAD","REF_FRAME":"TEME","TLE_LINE2":"2 52455  53.2172  43.3908 0001340 129.7525 230.3585 15.08831032 55590","ARG_OF_PERICENTER":"129.7525","ECCENTRICITY":"0.00013400","APOAPSIS":"540.700","COUNTRY_CODE":"US","INCLINATION":"53.2172","OBJECT_NAME":"STARLINK-3890","OBJECT_ID":"2022-049E","PERIOD":"95.438","EPOCH":"2023-05-07T21:53:38.088096","SITE":"AFETR","TIME_SYSTEM":"UTC","EPHEMERIS_TYPE":"0","SEMIMAJOR_AXIS":"6917.908","RCS_SIZE":"LARGE","MEAN_MOTION_DOT":"-0.00001019","REV_AT_EPOCH":"5559"},{"MEAN_MOTION_DOT":"0.00001983","RCS_SIZE":"LARGE","REV_AT_EPOCH":"5559","TIME_SYSTEM":"UTC","EPOCH":"2023-05-07T21:48:20.200896","SITE":"AFETR","SEMIMAJOR_AXIS":"6917.874","EPHEMERIS_TYPE":"0","ARG_OF_PERICENTER":"110.2796","TLE_LINE2":"2 52456  53.2177  43.4107 0001173 110.2796 249.8322 15.08842132 55594","OBJECT_NAME":"STARLINK-3896","COUNTRY_CODE":"US","INCLINATION":"53.2177","OBJECT_ID":"2022-049F","PERIOD":"95.437","APOAPSIS":"540.550","ECCENTRICITY":"0.00011730","LAUNCH_DATE":"2022-05-06","REF_FRAME":"TEME","OBJECT_TYPE":"PAYLOAD","MEAN_MOTION_DDOT":"0.0000000000000","MEAN_ELEMENT_THEORY":"SGP4","MEAN_ANOMALY":"249.8322","FILE":"3903413","CENTER_NAME":"EARTH","TLE_LINE1":"1 52456U 22049F   23127.90856714  .00001983  00000-0  14261-3 0  9992","NORAD_CAT_ID":"52456","ELEMENT_SET_NO":"999","CLASSIFICATION_TYPE":"U","PERIAPSIS":"538.927","MEAN_MOTION":"15.08842132","GP_ID":"231430687","DECAY_DATE":null,"BSTAR":"0.00014261000000","RA_OF_ASC_NODE":"43.4107"},{"ARG_OF_PERICENTER":"108.0750","TLE_LINE2":"2 52457  53.2176  43.4221 0001239 108.0750 252.0377 15.08834706 55593","COUNTRY_CODE":"US","INCLINATION":"53.2176","OBJECT_ID":"2022-049G","OBJECT_NAME":"STARLINK-3899","PERIOD":"95.438","APOAPSIS":"540.619","ECCENTRICITY":"0.00012390","LAUNCH_DATE":"2022-05-06","REF_FRAME":"TEME","OBJECT_TYPE":"PAYLOAD","MEAN_MOTION_DOT":"-0.00001975","RCS_SIZE":"LARGE","REV_AT_EPOCH":"5559","TIME_SYSTEM":"UTC","EPOCH":"2023-05-07T21:41:39.323904","SITE":"AFETR","SEMIMAJOR_AXIS":"6917.897","EPHEMERIS_TYPE":"0","NORAD_CAT_ID":"52457","ELEMENT_SET_NO":"999","CLASSIFICATION_TYPE":"U","PERIAPSIS":"538.904","MEAN_MOTION":"15.08834706","GP_ID":"231429436","DECAY_DATE":null,"BSTAR":"-0.00010604000000","RA_OF_ASC_NODE":"43.4221","MEAN_MOTION_DDOT":"0.0000000000000","MEAN_ELEMENT_THEORY":"SGP4","MEAN_ANOMALY":"252.0377","FILE":"3903413","TLE_LINE1":"1 52457U 22049G   23127.90392736 -.00001975  00000-0 -10604-3 0  9992","CENTER_NAME":"EARTH"},{"RA_OF_ASC_NODE":"43.4428","DECAY_DATE":null,"BSTAR":"0.00008069200000","GP_ID":"231429686","MEAN_MOTION":"15.08839362","PERIAPSIS":"538.902","CLASSIFICATION_TYPE":"U","ELEMENT_SET_NO":"999","NORAD_CAT_ID":"52458","TLE_LINE1":"1 52458U 22049H   23127.90121399  .00000997  00000-0  80692-4 0  9994","CENTER_NAME":"EARTH","FILE":"3903413","MEAN_ANOMALY":"278.3875","MEAN_ELEMENT_THEORY":"SGP4","MEAN_MOTION_DDOT":"0.0000000000000","OBJECT_TYPE":"PAYLOAD","REF_FRAME":"TEME","LAUNCH_DATE":"2022-05-06","ECCENTRICITY":"0.00012220","APOAPSIS":"540.593","PERIOD":"95.438","COUNTRY_CODE":"US","OBJECT_NAME":"STARLINK-3898","INCLINATION":"53.2192","OBJECT_ID":"2022-049H","TLE_LINE2":"2 52458  53.2192  43.4428 0001222  81.7256 278.3875 15.08839362 55598","ARG_OF_PERICENTER":"81.7256","EPHEMERIS_TYPE":"0","SEMIMAJOR_AXIS":"6917.882","SITE":"AFETR","EPOCH":"2023-05-07T21:37:44.888736","TIME_SYSTEM":"UTC","REV_AT_EPOCH":"5559","RCS_SIZE":"LARGE","MEAN_MOTION_DOT":"0.00000997"},{"TLE_LINE2":"2 52459  53.2181  33.5124 0000907  96.0089 264.1007 15.08828884 55724","ARG_OF_PERICENTER":"96.0089","APOAPSIS":"540.407","ECCENTRICITY":"0.00009070","PERIOD":"95.438","COUNTRY_CODE":"US","INCLINATION":"53.2181","OBJECT_NAME":"STARLINK-3856","OBJECT_ID":"2022-049J","LAUNCH_DATE":"2022-05-06","OBJECT_TYPE":"PAYLOAD","REF_FRAME":"TEME","RCS_SIZE":"LARGE","MEAN_MOTION_DOT":"-0.00003164","REV_AT_EPOCH":"5572","SITE":"AFETR","EPOCH":"2023-05-07T21:16:29.146944","TIME_SYSTEM":"UTC","EPHEMERIS_TYPE":"0","SEMIMAJOR_AXIS":"6917.914","NORAD_CAT_ID":"52459","GP_ID":"231430437","MEAN_MOTION":"15.08828884","PERIAPSIS":"539.152","CLASSIFICATION_TYPE":"U","ELEMENT_SET_NO":"999","BSTAR":"-0.00018087000000","DECAY_DATE":null,"RA_OF_ASC_NODE":"33.5124","MEAN_ELEMENT_THEORY":"SGP4","MEAN_MOTION_DDOT":"0.0000000000000","FILE":"3903413","MEAN_ANOMALY":"264.1007","CENTER_NAME":"EARTH","TLE_LINE1":"1 52459U 22049J   23127.88644846 -.00003164  00000-0 -18087-3 0  9998"},{"ELEMENT_SET_NO":"999","PERIAPSIS":"539.032","CLASSIFICATION_TYPE":"U","MEAN_MOTION":"15.08828137","GP_ID":"231431187","NORAD_CAT_ID":"52460","RA_OF_ASC_NODE":"33.4960","DECAY_DATE":null,"BSTAR":"0.00009977300000","MEAN_ANOMALY":"231.4029","FILE":"3903413","MEAN_MOTION_DDOT":"0.0000000000000","MEAN_ELEMENT_THEORY":"SGP4","TLE_LINE1":"1 52460U 22049K   23127.87908467  .00001300  00000-0  99773-4 0  9991","CENTER_NAME":"EARTH","COUNTRY_CODE":"US","INCLINATION":"53.2181","OBJECT_ID":"2022-049K","OBJECT_NAME":"STARLINK-3865","PERIOD":"95.438","ECCENTRICITY":"0.00010830","APOAPSIS":"540.531","ARG_OF_PERICENTER":"128.7060","TLE_LINE2":"2 52460  53.2181  33.4960 0001083 128.7060 231.4029 15.08828137 55723","REF_FRAME":"TEME","OBJECT_TYPE":"PAYLOAD","LAUNCH_DATE":"2022-05-06","REV_AT_EPOCH":"5572","RCS_SIZE":"LARGE","MEAN_MOTION_DOT":"0.00001300","SEMIMAJOR_AXIS":"6917.917","EPHEMERIS_TYPE":"0","TIME_SYSTEM":"UTC","EPOCH":"2023-05-07T21:05:52.915488","SITE":"AFETR"},{"RA_OF_ASC_NODE":"23.5233","DECAY_DATE":null,"BSTAR":"-0.00005035000000","GP_ID":"231406577","MEAN_MOTION":"15.08833102","PERIAPSIS":"539.058","CLASSIFICATION_TYPE":"U","ELEMENT_SET_NO":"999","NORAD_CAT_ID":"52461","CENTER_NAME":"EARTH","TLE_LINE1":"1 52461U 22049L   23127.88368992 -.00001089  00000-0 -50350-4 0  9990","FILE":"3903391","MEAN_ANOMALY":"265.4768","MEAN_ELEMENT_THEORY":"SGP4","MEAN_MOTION_DDOT":"0.0000000000000","OBJECT_TYPE":"PAYLOAD","REF_FRAME":"TEME","LAUNCH_DATE":"2022-05-06","ECCENTRICITY":"0.00010240","APOAPSIS":"540.475","PERIOD":"95.438","COUNTRY_CODE":"US","INCLINATION":"53.2168","OBJECT_ID":"2022-049L","OBJECT_NAME":"STARLINK-3900","TLE_LINE2":"2 52461  53.2168  23.5233 0001024  94.6341 265.4768 15.08833102 56029","ARG_OF_PERICENTER":"94.6341","EPHEMERIS_TYPE":"0","SEMIMAJOR_AXIS":"6917.901","SITE":"AFETR","EPOCH":"2023-05-07T21:12:30.809088","TIME_SYSTEM":"UTC","REV_AT_EPOCH":"5602","MEAN_MOTION_DOT":"-0.00001089","RCS_SIZE":"LARGE"}];
